{
  "type": "FeatureCollection",
  "features": [
    {
      "type": "Feature",
      "properties": {
        "norad_id": 66659,
        "name": "JACK K",
        "group": "last-30-days",
        "lat": 67.33592599612146,
        "lon": 103.95007162578493,
        "alt_km": 590.8648694483336,
        "timestamp": "2025-12-03T13:52:08.347378+00:00",
        "meta_object_name": "JACK K",
        "meta_object_id": "2025-274K",
        "meta_epoch": "2025-12-03T06:56:11.915520",
        "meta_mean_motion": 14.92717917,
        "meta_eccentricity": 0.0012467,
        "meta_inclination": 97.7382,
        "meta_ra_of_asc_node": 264.662,
        "meta_arg_of_pericenter": 315.9556,
        "meta_mean_anomaly": 44.0669,
        "meta_ephemeris_type": 0,
        "meta_classification_type": "U",
        "meta_norad_cat_id": 66659,
        "meta_element_set_no": 999,
        "meta_rev_at_epoch": 99,
        "meta_bstar": 0.00049134978,
        "meta_mean_motion_dot": 5.023e-05,
        "meta_mean_motion_ddot": 0,
        "tle_line1": "1 66659U 25274K   25337.28902680  .00005023  00000+0  49135-3 0  9991",
        "tle_line2": "2 66659  97.7382 264.6620 0012467 315.9556  44.0669 14.92717917   995"
      },
      "geometry": {
        "type": "Point",
        "coordinates": [
          103.95007162578493,
          67.33592599612146
        ]
      }
    },
    {
      "type": "Feature",
      "properties": {
        "norad_id": 66660,
        "name": "K-HERO",
        "group": "last-30-days",
        "lat": 63.82427615472683,
        "lon": 101.00803333297947,
        "alt_km": 591.3302140036267,
        "timestamp": "2025-12-03T13:52:08.347389+00:00",
        "meta_object_name": "K-HERO",
        "meta_object_id": "2025-274L",
        "meta_epoch": "2025-12-03T02:05:41.370432",
        "meta_mean_motion": 14.92867452,
        "meta_eccentricity": 0.00131137,
        "meta_inclination": 97.7385,
        "meta_ra_of_asc_node": 264.4654,
        "meta_arg_of_pericenter": 317.1645,
        "meta_mean_anomaly": 42.8552,
        "meta_ephemeris_type": 0,
        "meta_classification_type": "U",
        "meta_norad_cat_id": 66660,
        "meta_element_set_no": 999,
        "meta_rev_at_epoch": 96,
        "meta_bstar": 0.00049939429,
        "meta_mean_motion_dot": 5.127e-05,
        "meta_mean_motion_ddot": 0,
        "tle_line1": "1 66660U 25274L   25337.08728438  .00005127  00000+0  49939-3 0  9995",
        "tle_line2": "2 66660  97.7385 264.4654 0013113 317.1645  42.8552 14.92867452   961"
      },
      "geometry": {
        "type": "Point",
        "coordinates": [
          101.00803333297947,
          63.82427615472683
        ]
      }
    },
    {
      "type": "Feature",
      "properties": {
        "norad_id": 66661,
        "name": "SNUGLITE-III",
        "group": "last-30-days",
        "lat": 60.15444013717091,
        "lon": 98.65838858354137,
        "alt_km": 591.8891744801958,
        "timestamp": "2025-12-03T13:52:08.347400+00:00",
        "meta_object_name": "SNUGLITE-III",
        "meta_object_id": "2025-274M",
        "meta_epoch": "2025-12-03T02:04:43.927392",
        "meta_mean_motion": 14.93017228,
        "meta_eccentricity": 0.0013814,
        "meta_inclination": 97.7382,
        "meta_ra_of_asc_node": 264.4662,
        "meta_arg_of_pericenter": 317.8272,
        "meta_mean_anomaly": 42.1883,
        "meta_ephemeris_type": 0,
        "meta_classification_type": "U",
        "meta_norad_cat_id": 66661,
        "meta_element_set_no": 999,
        "meta_rev_at_epoch": 96,
        "meta_bstar": 0.00040937782,
        "meta_mean_motion_dot": 4.208e-05,
        "meta_mean_motion_ddot": 0,
        "tle_line1": "1 66661U 25274M   25337.08661953  .00004208  00000+0  40938-3 0  9993",
        "tle_line2": "2 66661  97.7382 264.4662 0013814 317.8272  42.1883 14.93017228   968"
      },
      "geometry": {
        "type": "Point",
        "coordinates": [
          98.65838858354137,
          60.15444013717091
        ]
      }
    },
    {
      "type": "Feature",
      "properties": {
        "norad_id": 66662,
        "name": "2025-274N",
        "group": "last-30-days",
        "lat": 58.53589195318837,
        "lon": 97.78885008318044,
        "alt_km": 592.2470502456317,
        "timestamp": "2025-12-03T13:52:08.347409+00:00",
        "meta_object_name": "2025-274N",
        "meta_object_id": "2025-274N",
        "meta_epoch": "2025-12-03T06:53:49.377120",
        "meta_mean_motion": 14.93079723,
        "meta_eccentricity": 0.00141827,
        "meta_inclination": 97.7383,
        "meta_ra_of_asc_node": 264.6643,
        "meta_arg_of_pericenter": 316.4523,
        "meta_mean_anomaly": 43.5576,
        "meta_ephemeris_type": 0,
        "meta_classification_type": "U",
        "meta_norad_cat_id": 66662,
        "meta_element_set_no": 999,
        "meta_rev_at_epoch": 99,
        "meta_bstar": 0.00030192864,
        "meta_mean_motion_dot": 3.094e-05,
        "meta_mean_motion_ddot": 0,
        "tle_line1": "1 66662U 25274N   25337.28737705  .00003094  00000+0  30193-3 0  9999",
        "tle_line2": "2 66662  97.7383 264.6643 0014182 316.4523  43.5576 14.93079723   999"
      },
      "geometry": {
        "type": "Point",
        "coordinates": [
          97.78885008318044,
          58.53589195318837
        ]
      }
    },
    {
      "type": "Feature",
      "properties": {
        "norad_id": 66663,
        "name": "KSLV-II R/B",
        "group": "last-30-days",
        "lat": -46.30541047630158,
        "lon": 76.82407865823568,
        "alt_km": 598.6859867879575,
        "timestamp": "2025-12-03T13:52:08.347420+00:00",
        "meta_object_name": "KSLV-II R/B",
        "meta_object_id": "2025-274P",
        "meta_epoch": "2025-12-02T09:35:20.901408",
        "meta_mean_motion": 14.972028,
        "meta_eccentricity": 0.00441352,
        "meta_inclination": 97.7406,
        "meta_ra_of_asc_node": 263.8419,
        "meta_arg_of_pericenter": 353.0151,
        "meta_mean_anomaly": 7.045,
        "meta_ephemeris_type": 0,
        "meta_classification_type": "U",
        "meta_norad_cat_id": 66663,
        "meta_element_set_no": 999,
        "meta_rev_at_epoch": 86,
        "meta_bstar": -0.00028812216,
        "meta_mean_motion_dot": -3.459e-05,
        "meta_mean_motion_ddot": 0,
        "tle_line1": "1 66663U 25274P   25336.39954747 -.00003459  00000+0 -28812-3 0  9990",
        "tle_line2": "2 66663  97.7406 263.8419 0044135 353.0151   7.0450 14.97202800   863"
      },
      "geometry": {
        "type": "Point",
        "coordinates": [
          76.82407865823568,
          -46.30541047630158
        ]
      }
    },
    {
      "type": "Feature",
      "properties": {
        "norad_id": 66664,
        "name": "SOYUZ-MS 28",
        "group": "last-30-days",
        "lat": 8.815083164182164,
        "lon": -165.1061445049836,
        "alt_km": 420.79145206163685,
        "timestamp": "2025-12-03T13:52:08.347430+00:00",
        "meta_object_name": "SOYUZ-MS 28",
        "meta_object_id": "2025-275A",
        "meta_epoch": "2025-12-03T01:26:08.635488",
        "meta_mean_motion": 15.49262423,
        "meta_eccentricity": 0.00036204,
        "meta_inclination": 51.6309,
        "meta_ra_of_asc_node": 190.4017,
        "meta_arg_of_pericenter": 198.708,
        "meta_mean_anomaly": 161.3776,
        "meta_ephemeris_type": 0,
        "meta_classification_type": "U",
        "meta_norad_cat_id": 66664,
        "meta_element_set_no": 999,
        "meta_rev_at_epoch": 94,
        "meta_bstar": 0.00021764811,
        "meta_mean_motion_dot": 0.0001167,
        "meta_mean_motion_ddot": 0,
        "tle_line1": "1 66664U 25275A   25337.05982217  .00011670  00000+0  21765-3 0  9991",
        "tle_line2": "2 66664  51.6309 190.4017 0003620 198.7080 161.3776 15.49262423   942"
      },
      "geometry": {
        "type": "Point",
        "coordinates": [
          -165.1061445049836,
          8.815083164182164
        ]
      }
    },
    {
      "type": "Feature",
      "properties": {
        "norad_id": 66820,
        "name": "KOMPSAT-7",
        "group": "last-30-days",
        "lat": -82.07706162811608,
        "lon": -1.6834806898489596,
        "alt_km": 573.20548287165,
        "timestamp": "2025-12-03T13:52:08.347443+00:00",
        "meta_object_name": "KOMPSAT-7",
        "meta_object_id": "2025-279A",
        "meta_epoch": "2025-12-01T20:35:16.060992",
        "meta_mean_motion": 14.98310631,
        "meta_eccentricity": 0.00097501,
        "meta_inclination": 97.6394,
        "meta_ra_of_asc_node": 281.9587,
        "meta_arg_of_pericenter": 255.3935,
        "meta_mean_anomaly": 104.6207,
        "meta_ephemeris_type": 0,
        "meta_classification_type": "U",
        "meta_norad_cat_id": 66820,
        "meta_element_set_no": 999,
        "meta_rev_at_epoch": 2,
        "meta_bstar": 8.4407298e-05,
        "meta_mean_motion_dot": 9.47e-06,
        "meta_mean_motion_ddot": 0,
        "tle_line1": "1 66820U 25279A   25335.85782478  .00000947  00000+0  84407-4 0  9990",
        "tle_line2": "2 66820  97.6394 281.9587 0009750 255.3935 104.6207 14.98310631    23"
      },
      "geometry": {
        "type": "Point",
        "coordinates": [
          -1.6834806898489596,
          -82.07706162811608
        ]
      }
    }
  ]
}